[{"OBJECT_NAME":"STARLINK-35417","OBJECT_ID":"2025-253S","EPOCH":"2026-03-09T10:12:35.316000","MEAN_MOTION":15.27594286,"ECCENTRICITY":0.00028697,"INCLINATION":42.9984,"RA_OF_ASC_NODE":214.0338,"ARG_OF_PERICENTER":291.1795,"MEAN_ANOMALY":68.875,"EPHEMERIS_TYPE":0,"CLASSIFICATION_TYPE":"U","NORAD_CAT_ID":66335,"ELEMENT_SET_NO":999,"REV_AT_EPOCH":2020,"BSTAR":0.0010345601,"MEAN_MOTION_DOT":0.0002833,"MEAN_MOTION_DDOT":0},{"OBJECT_NAME":"COSMOS 970 DEB","OBJECT_ID":"1977-121BY","EPOCH":"2026-03-08T00:28:08.036544","MEAN_MOTION":15.38602545,"ECCENTRICITY":0.01254623,"INCLINATION":65.7647,"RA_OF_ASC_NODE":81.4591,"ARG_OF_PERICENTER":84.8291,"MEAN_ANOMALY":276.7158,"EPHEMERIS_TYPE":0,"CLASSIFICATION_TYPE":"U","NORAD_CAT_ID":20327,"ELEMENT_SET_NO":999,"REV_AT_EPOCH":74479,"BSTAR":0.0016623992,"MEAN_MOTION_DOT":0.00084425,"MEAN_MOTION_DDOT":0}]
